[{"OBJECT_NAME":"STARLINK-31932","OBJECT_ID":"2024-106H","EPOCH":"2026-03-09T08:00:01.000224","MEAN_MOTION":15.27579229,"ECCENTRICITY":0.00015889,"INCLINATION":43.0026,"RA_OF_ASC_NODE":331.3327,"ARG_OF_PERICENTER":281.5974,"MEAN_ANOMALY":95.7698,"EPHEMERIS_TYPE":0,"CLASSIFICATION_TYPE":"U","NORAD_CAT_ID":59929,"ELEMENT_SET_NO":999,"REV_AT_EPOCH":577,"BSTAR":0.00020791125,"MEAN_MOTION_DOT":5.463e-5,"MEAN_MOTION_DDOT":0},{"OBJECT_NAME":"SL-3 DEB","OBJECT_ID":"1988-032D","EPOCH":"2026-03-09T21:36:49.536576","MEAN_MOTION":15.21301321,"ECCENTRICITY":0.00302448,"INCLINATION":97.5102,"RA_OF_ASC_NODE":52.3226,"ARG_OF_PERICENTER":221.5268,"MEAN_ANOMALY":138.367,"EPHEMERIS_TYPE":0,"CLASSIFICATION_TYPE":"U","NORAD_CAT_ID":25655,"ELEMENT_SET_NO":999,"REV_AT_EPOCH":5124,"BSTAR":0.00031081119,"MEAN_MOTION_DOT":6.967e-5,"MEAN_MOTION_DDOT":0}]
